#aV2023  3 11  0  0  0.00000000     288 DD+AD WGS84 FIT  NGA
## 2252 518400.00000000   300.00000000 60014 0.0000000000000
+   32     1  2  3  4  5  6  7  8  9 10 11 12 13 14 15 16 17
+         18 19 20 21 22 23 24 25 26 27 28 29 30 31 32  0  0
+          0  0  0  0  0  0  0  0  0  0  0  0  0  0  0  0  0
+          0  0  0  0  0  0  0  0  0  0  0  0  0  0  0  0  0
+          0  0  0  0  0  0  0  0  0  0  0  0  0  0  0  0  0
++         2  2  2  2  2  2  2  2  2  2  2  2  2  2  2  2  2
++         2  2  2  2  2  2  2  2  2  2  2  2  2  2  2  0  0
++         0  0  0  0  0  0  0  0  0  0  0  0  0  0  0  0  0
++         0  0  0  0  0  0  0  0  0  0  0  0  0  0  0  0  0
++         0  0  0  0  0  0  0  0  0  0  0  0  0  0  0  0  0
%c cc cc ccc ccc cccc cccc cccc cccc ccccc ccccc ccccc ccccc
%c cc cc ccc ccc cccc cccc cccc cccc ccccc ccccc ccccc ccccc
%f  0.0000000  0.000000000  0.00000000000  0.000000000000000
%f  0.0000000  0.000000000  0.00000000000  0.000000000000000
%i    0    0    0    0      0      0      0      0         0
%i    0    0    0    0      0      0      0      0         0
/*      NGA, ST. LOUIS,MO.                                  
/*   EPHEMERIS COMPUTED FROM 2 DAYS OF DATA                 
/*   EPOCHA v8 SMOOTHER                                     
/*   G2139 IERS2010 SATIGS SATAPC                           
*  2023  3 11  8 50  0.00000000
P  1 -14297.186207   2174.771425  21965.584459    203.959603                    
V  1  -6438.389815 -27848.552387  -1072.520311     -0.038366                    
P  2  13027.220750  -7395.537346 -21330.474264   -615.169497                    
V  2   9237.402975  26999.083021  -3384.501268      0.027787                    
P  3 -21664.112671  10734.398896  10738.152473   -351.703552                    
V  3   8523.210156 -11100.333158  28084.912723      0.062902                    
P  4 -23455.571208   1439.175818 -12477.049125     -9.660784                    
V  4 -14341.043651  -7013.075350  26020.373255      0.086285                    
P  5  16485.946737   3522.384970 -20720.783027   -119.021314                    
V  5 -17273.743971  19299.545399 -10431.798385     -0.014637                    
P  6   5080.667819  25969.747138   1599.993993    580.323640                    
V  6  -2388.791783  -1437.634841  32349.831720      0.031088                    
P  7  -9021.802928  16805.824884 -17836.557217    225.399974                    
V  7  -7658.919284 -22580.915833 -17467.846760     -0.076247                    
P  8 -26014.852852  -6292.969999    755.584074   -112.375176                    
V  8   -350.515768  -2693.667721 -31454.279373     -0.017890                    
P  9 -15238.217585  10083.090217 -19364.520885   -202.860911                    
V  9 -23266.861341  -7579.373926  14371.237113      0.074346                    
P 10   6860.081589 -20732.919041  15071.919421    -28.073634                    
V 10  14889.675826 -11810.843772 -23597.046867     -0.015882                    
P 11  12207.590336  20481.081700 -11728.225731   -126.991802                    
V 11    608.120112  15044.100727  26848.675260     -0.112259                    
P 12  22204.136481  -7683.236688  12008.336550   -350.126461                    
V 12 -10563.237458  11879.085125  26607.110684     -0.046175                    
P 13  22426.424290  13653.629954  -4836.950400    488.735915                    
V 13  -6302.820596   -311.925552 -31043.402505      0.058433                    
P 14  -9926.130678  21079.534563  12631.780941     -6.953248                    
V 14 -13774.916160   8769.477232 -25599.770431      0.100389                    
P 15  26466.712238   3429.696967    576.252443     20.555681                    
V 15    740.520535   3647.422663 -30921.058567      0.033672                    
P 16 -14464.808021  -7378.700556 -21399.444161   -516.040137                    
V 16  20321.037919 -16809.312604  -7602.193103      0.021197                    
P 17  -1255.379580  15402.671467  22023.106014    704.829787                    
V 17 -25443.113041  -8757.686181   4867.758424      0.021155                    
P 18   6454.764241 -20251.316381 -15833.280241   -174.776427                    
V 18   6162.760741  19251.996473 -22248.412642     -0.162964                    
P 19  10054.858167  17051.895949  17612.397977    288.517272                    
V 19 -21486.807541  -7387.663678  18900.986859      0.050905                    
P 20   9175.909388  13167.884470 -21155.378706    445.739282                    
V 20 -16523.207992  21312.013977   5886.645318     -0.023344                    
P 21 -17065.513800  -6930.712732  19995.137883    154.316351                    
V 21  -7036.110824 -22839.616471 -13516.747035      0.000864                    
P 22 -13025.166107 -17060.449783  16192.455275    443.024991                    
V 22  18967.300486   5507.989913  21490.649555      0.073395                    
P 23  15995.645452 -20624.255462   4484.547559     10.026630                    
V 23   5799.534616  -2297.318791 -31426.331450      0.020299                    
P 24  16568.835527   1917.881009  20395.141864   -107.069564                    
V 24   7806.028048  25560.195200  -8181.798053     -0.153864                    
P 25  20323.630374 -16424.970697   3532.595620    426.769915                    
V 25  -1207.587853   5779.884088  31342.290123      0.030796                    
P 26  -3890.133733 -17362.329563 -19734.909059    241.945097                    
V 26  18028.102367 -17401.357428  12165.763129      0.001070                    
P 27 -21326.786104 -13094.221209  -9741.727747     83.665290                    
V 27  11952.553203   1428.903643 -28391.947289     -0.084826                    
P 28  -4834.460091 -25884.816177   3464.165714     39.801066                    
V 28   3854.811524   3516.087292  31373.015852      0.107434                    
P 29  18701.125692  -5938.283117 -17987.282251   -590.276993                    
V 29  20781.116421   9144.924254  18560.367031     -0.018335                    
P 30   -528.021356  24995.129114  -8466.758012   -527.341846                    
V 30  -5968.494047  -9899.746026 -28780.948812      0.015063                    
P 31  -6922.954720 -25343.009407  -1782.769501   -211.316301                    
V 31   2838.256214  -2770.899810  31804.732605     -0.009075                    
P 32  -2934.908376 -16167.829340  21076.550173   -420.127013                    
V 32  25523.674380   6504.499799   8416.374908     -0.109686                    
EOF
